SENTINEL-6              
1 46984U 20086A   24296.96388928 -.00000046  00000+0  65702-4 0  9997
2 46984  66.0408 305.8783 0007919 269.8185  90.1923 12.80929615183195
